NIMIQ 2                 
1 27632U 02062A   26191.21649220 -.00000067  00000+0  00000+0 0  9997
2 27632   9.4965  56.6495 0005316  51.7077 148.5326  1.00270164 44415
ANIK F2                 
1 28378U 04027A   26191.30807618 -.00000042  00000+0  00000+0 0  9998
2 28378   3.3442  79.1359 0003602  29.7003 179.1787  1.00271086 41495
ANIK F1R                
1 28868U 05036A   26191.30902329 -.00000069  00000+0  00000+0 0  9997
2 28868   4.3687  76.2920 0003782  24.9190 190.9709  1.00271352 46683
ANIK F3                 
1 31102U 07009A   26191.34141275  .00000008  00000+0  00000+0 0  9995
2 31102   1.2544  83.5764 0002511  34.1795 174.7031  1.00271826 46792
NIMIQ 4                 
1 33373U 08044A   26191.30808817  .00000000  00000+0  00000+0 0  9997
2 33373   0.0312  59.9119 0002155  75.8376 181.4092  1.00266135 65213
TELSTAR 11N             
1 34111U 09009A   26190.34759072 -.00000237  00000+0  00000+0 0  9994
2 34111   0.0289  77.6509 0002355  30.2056 267.0168  1.00272331 46465
TERRESTAR-1             
1 35496U 09035A   26191.04593390 -.00000050  00000+0  00000+0 0  9990
2 35496   5.1922  48.7813 0002601  53.9167  90.8096  1.00273784 62360
NIMIQ 5                 
1 35873U 09050A   26191.31251738 -.00000246  00000+0  00000+0 0  9990
2 35873   0.0532 260.3586 0002563 207.4226 220.2505  1.00269397 61579
SKYTERRA 1              
1 37218U 10061A   26191.22102613 -.00000112  00000+0  00000+0 0  9998
2 37218   5.1716  50.8100 0002120  36.4368 179.1336  1.00270722 57421
TELSTAR 14R             
1 37602U 11021A   26191.26922480 -.00000269  00000+0  00000+0 0  9991
2 37602   0.0737  84.4480 0001755 356.1454 241.5319  1.00271306 56063
NIMIQ 6                 
1 38342U 12026A   26191.26367811 -.00000163  00000+0  00000+0 0  9993
2 38342   0.0153 319.6077 0002588 151.9858 180.4127  1.00271873 50641
ANIK G1                 
1 39127U 13014A   26191.30957963 -.00000063  00000+0  00000+0 0  9990
2 39127   0.0496 262.2306 0001647 218.2327 171.9126  1.00271272 48480
TELSTAR 12V             
1 41036U 15068A   26191.27875819 -.00000108  00000+0  00000+0 0  9998
2 41036   0.0141 335.0344 0002119 142.7542 255.7782  1.00272006 38850
VIASAT-2                
1 42740U 17029A   26191.30253051 -.00000255  00000+0  00000+0 0  9995
2 42740   0.0202 302.3496 0000174 272.7054 112.2079  1.00270730 33434
LEO 1 (LEO VANTAGE 1)   
1 43113U 18004C   26191.22118938  .00003344  00000+0  23317-3 0  9990
2 43113  99.2417 112.5184 0349793   8.9423 351.7795 14.67997728440868
TELSTAR 19V             
1 43562U 18059A   26191.19796344 -.00000269  00000+0  00000+0 0  9991
2 43562   0.0382 177.1918 0002857 312.9485 166.2517  1.00270133 29379
TELSTAR 18V             
1 43611U 18069A   26191.28447437 -.00000283  00000+0  00000+0 0  9999
2 43611   0.0132 332.6810 0001754 143.6790  52.2638  1.00269704 28873
AMOS-17                 
1 44479U 19050A   26191.28508490  .00000120  00000+0  00000+0 0  9999
2 44479   0.0174 346.2109 0001333 128.5707 293.0344  1.00271654 25410
